IRIDIUM 106             
1 41917U 17003A   24172.59590652  .00000003  00000+0 -59056-5 0  9993
2 41917  86.3968  32.1632 0002412  95.9893 264.1577 14.34217579389064
IRIDIUM 103             
1 41918U 17003B   24172.58321988  .00000038  00000+0  63413-5 0  9996
2 41918  86.3973  32.0706 0001827  92.3890 267.7515 14.34217822389083
IRIDIUM 109             
1 41919U 17003C   24172.58956278  .00000110  00000+0  32169-4 0  9997
2 41919  86.3974  32.1155 0001976  80.7343 279.4076 14.34217012389053
IRIDIUM 102             
1 41920U 17003D   24172.62761877  .00000059  00000+0  14147-4 0  9991
2 41920  86.3974  32.0387 0002275  82.1167 278.0287 14.34218009389140
IRIDIUM 105             
1 41921U 17003E   24172.59840255  .00000360  00000+0  12150-3 0  9992
2 41921  86.3976   0.4889 0002034  91.4520 268.6908 14.34223980390992
IRIDIUM 104             
1 41922U 17003F   24172.57054670  .00000306  00000+0  10230-3 0  9996
2 41922  86.3972  32.0939 0001859  78.8961 281.2444 14.34213940389122
IRIDIUM 114             
1 41923U 17003G   24172.57687839  .00000097  00000+0  27648-4 0  9995
2 41923  86.3974  32.0773 0002353  91.4183 268.7283 14.34217932389102
IRIDIUM 108             
1 41924U 17003H   24172.60516684  .00000353  00000+0  11884-3 0  9998
2 41924  86.3970   0.4104 0002389  93.0408 267.1061 14.34216965390961
